{
  "type": "FeatureCollection",
  "features": [
    {
      "type": "Feature",
      "properties": {
        "norad_id": 42989,
        "name": "SKYSAT-C9",
        "group": "resource",
        "lat": 79.89612052685416,
        "lon": 82.76878233745869,
        "alt_km": 443.8423871067289,
        "timestamp": "2025-12-25T09:48:51.943832+00:00",
        "meta_object_name": "SKYSAT-C9",
        "meta_object_id": "2017-068C",
        "meta_epoch": "2025-12-24T20:56:58.064064",
        "meta_mean_motion": 15.36350651,
        "meta_eccentricity": 0.001027,
        "meta_inclination": 97.4196,
        "meta_ra_of_asc_node": 129.2247,
        "meta_arg_of_pericenter": 48.6623,
        "meta_mean_anomaly": 311.5503,
        "meta_ephemeris_type": 0,
        "meta_classification_type": "U",
        "meta_norad_cat_id": 42989,
        "meta_element_set_no": 999,
        "meta_rev_at_epoch": 45594,
        "meta_bstar": 0.00039865,
        "meta_mean_motion_dot": 0.00014082,
        "meta_mean_motion_ddot": 0,
        "tle_line1": "1 42989U 17068C   25358.87289426  .00014082  00000+0  39865-3 0  9991",
        "tle_line2": "2 42989  97.4196 129.2247 0010270  48.6623 311.5503 15.36350651455946"
      },
      "geometry": {
        "type": "Point",
        "coordinates": [
          82.76878233745869,
          79.89612052685416
        ]
      }
    },
    {
      "type": "Feature",
      "properties": {
        "norad_id": 42990,
        "name": "SKYSAT-C8",
        "group": "resource",
        "lat": -82.55222307391018,
        "lon": -144.04052549332468,
        "alt_km": 473.0052194384698,
        "timestamp": "2025-12-25T09:48:51.943841+00:00",
        "meta_object_name": "SKYSAT-C8",
        "meta_object_id": "2017-068D",
        "meta_epoch": "2025-12-24T20:06:25.740288",
        "meta_mean_motion": 15.33182235,
        "meta_eccentricity": 9.448e-05,
        "meta_inclination": 97.4288,
        "meta_ra_of_asc_node": 128.8929,
        "meta_arg_of_pericenter": 271.5017,
        "meta_mean_anomaly": 88.6117,
        "meta_ephemeris_type": 0,
        "meta_classification_type": "U",
        "meta_norad_cat_id": 42990,
        "meta_element_set_no": 999,
        "meta_rev_at_epoch": 45556,
        "meta_bstar": 0.00038956306,
        "meta_mean_motion_dot": 0.00012417,
        "meta_mean_motion_ddot": 0,
        "tle_line1": "1 42990U 17068D   25358.83779792  .00012417  00000+0  38956-3 0  9999",
        "tle_line2": "2 42990  97.4288 128.8929 0000944 271.5017  88.6117 15.33182235455562"
      },
      "geometry": {
        "type": "Point",
        "coordinates": [
          -144.04052549332468,
          -82.55222307391018
        ]
      }
    },
    {
      "type": "Feature",
      "properties": {
        "norad_id": 42991,
        "name": "SKYSAT-C7",
        "group": "resource",
        "lat": 78.60114445201407,
        "lon": -9.168912298091968,
        "alt_km": 460.0893271729474,
        "timestamp": "2025-12-25T09:48:51.943851+00:00",
        "meta_object_name": "SKYSAT-C7",
        "meta_object_id": "2017-068E",
        "meta_epoch": "2025-12-24T22:25:01.461216",
        "meta_mean_motion": 15.32579579,
        "meta_eccentricity": 0.0006842,
        "meta_inclination": 97.4295,
        "meta_ra_of_asc_node": 130.0206,
        "meta_arg_of_pericenter": 18.698,
        "meta_mean_anomaly": 341.4512,
        "meta_ephemeris_type": 0,
        "meta_classification_type": "U",
        "meta_norad_cat_id": 42991,
        "meta_element_set_no": 999,
        "meta_rev_at_epoch": 45564,
        "meta_bstar": 0.00037999,
        "meta_mean_motion_dot": 0.00011889,
        "meta_mean_motion_ddot": 0,
        "tle_line1": "1 42991U 17068E   25358.93404469  .00011889  00000+0  37999-3 0  9995",
        "tle_line2": "2 42991  97.4295 130.0206 0006842  18.6980 341.4512 15.32579579455644"
      },
      "geometry": {
        "type": "Point",
        "coordinates": [
          -9.168912298091968,
          78.60114445201407
        ]
      }
    },
    {
      "type": "Feature",
      "properties": {
        "norad_id": 42992,
        "name": "SKYSAT-C6",
        "group": "resource",
        "lat": 2.6239139363250685,
        "lon": -48.731500153621774,
        "alt_km": 475.4456951563743,
        "timestamp": "2025-12-25T09:48:51.943861+00:00",
        "meta_object_name": "SKYSAT-C6",
        "meta_object_id": "2017-068F",
        "meta_epoch": "2025-12-24T20:30:02.163744",
        "meta_mean_motion": 15.31732317,
        "meta_eccentricity": 0.0004766,
        "meta_inclination": 97.4329,
        "meta_ra_of_asc_node": 130.3693,
        "meta_arg_of_pericenter": 49.5424,
        "meta_mean_anomaly": 310.6233,
        "meta_ephemeris_type": 0,
        "meta_classification_type": "U",
        "meta_norad_cat_id": 42992,
        "meta_element_set_no": 999,
        "meta_rev_at_epoch": 45561,
        "meta_bstar": 0.00038047,
        "meta_mean_motion_dot": 0.00011588,
        "meta_mean_motion_ddot": 0,
        "tle_line1": "1 42992U 17068F   25358.85419171  .00011588  00000+0  38047-3 0  9994",
        "tle_line2": "2 42992  97.4329 130.3693 0004766  49.5424 310.6233 15.31732317455610"
      },
      "geometry": {
        "type": "Point",
        "coordinates": [
          -48.731500153621774,
          2.6239139363250685
        ]
      }
    },
    {
      "type": "Feature",
      "properties": {
        "norad_id": 43111,
        "name": "CARTOSAT-2F",
        "group": "resource",
        "lat": 78.00211121925956,
        "lon": 18.958660302043818,
        "alt_km": 499.89476426338024,
        "timestamp": "2025-12-25T09:48:51.943871+00:00",
        "meta_object_name": "CARTOSAT-2F",
        "meta_object_id": "2018-004A",
        "meta_epoch": "2025-12-25T04:43:08.299776",
        "meta_mean_motion": 15.1924094,
        "meta_eccentricity": 0.0001601,
        "meta_inclination": 97.4296,
        "meta_ra_of_asc_node": 56.6317,
        "meta_arg_of_pericenter": 111.9624,
        "meta_mean_anomaly": 248.1781,
        "meta_ephemeris_type": 0,
        "meta_classification_type": "U",
        "meta_norad_cat_id": 43111,
        "meta_element_set_no": 999,
        "meta_rev_at_epoch": 44091,
        "meta_bstar": 0.00019674,
        "meta_mean_motion_dot": 4.078e-05,
        "meta_mean_motion_ddot": 0,
        "tle_line1": "1 43111U 18004A   25359.19662384  .00004078  00000+0  19674-3 0  9994",
        "tle_line2": "2 43111  97.4296  56.6317 0001601 111.9624 248.1781 15.19240940440913"
      },
      "geometry": {
        "type": "Point",
        "coordinates": [
          18.958660302043818,
          78.00211121925956
        ]
      }
    },
    {
      "type": "Feature",
      "properties": {
        "norad_id": 43259,
        "name": "GAOFEN-1 02",
        "group": "resource",
        "lat": 56.40029229241023,
        "lon": 44.85774291736877,
        "alt_km": 635.9320999482934,
        "timestamp": "2025-12-25T09:48:51.943881+00:00",
        "meta_object_name": "GAOFEN-1 02",
        "meta_object_id": "2018-031A",
        "meta_epoch": "2025-12-25T04:40:34.615776",
        "meta_mean_motion": 14.76440512,
        "meta_eccentricity": 0.0002646,
        "meta_inclination": 98.0785,
        "meta_ra_of_asc_node": 56.9876,
        "meta_arg_of_pericenter": 171.6693,
        "meta_mean_anomaly": 188.4561,
        "meta_ephemeris_type": 0,
        "meta_classification_type": "U",
        "meta_norad_cat_id": 43259,
        "meta_element_set_no": 999,
        "meta_rev_at_epoch": 41702,
        "meta_bstar": 0.00017833,
        "meta_mean_motion_dot": 1.188e-05,
        "meta_mean_motion_ddot": 0,
        "tle_line1": "1 43259U 18031A   25359.19484509  .00001188  00000+0  17833-3 0  9992",
        "tle_line2": "2 43259  98.0785  56.9876 0002646 171.6693 188.4561 14.76440512417025"
      },
      "geometry": {
        "type": "Point",
        "coordinates": [
          44.85774291736877,
          56.40029229241023
        ]
      }
    },
    {
      "type": "Feature",
      "properties": {
        "norad_id": 43260,
        "name": "GAOFEN-1 03",
        "group": "resource",
        "lat": 6.31664584566098,
        "lon": -122.02151197403465,
        "alt_km": 642.4687427369345,
        "timestamp": "2025-12-25T09:48:51.943891+00:00",
        "meta_object_name": "GAOFEN-1 03",
        "meta_object_id": "2018-031B",
        "meta_epoch": "2025-12-25T04:09:05.205888",
        "meta_mean_motion": 14.76461494,
        "meta_eccentricity": 0.0001738,
        "meta_inclination": 98.0781,
        "meta_ra_of_asc_node": 56.8417,
        "meta_arg_of_pericenter": 255.0335,
        "meta_mean_anomaly": 105.0682,
        "meta_ephemeris_type": 0,
        "meta_classification_type": "U",
        "meta_norad_cat_id": 43260,
        "meta_element_set_no": 999,
        "meta_rev_at_epoch": 41701,
        "meta_bstar": 0.00014183,
        "meta_mean_motion_dot": 9.35e-06,
        "meta_mean_motion_ddot": 0,
        "tle_line1": "1 43260U 18031B   25359.17297692  .00000935  00000+0  14183-3 0  9991",
        "tle_line2": "2 43260  98.0781  56.8417 0001738 255.0335 105.0682 14.76461494417014"
      },
      "geometry": {
        "type": "Point",
        "coordinates": [
          -122.02151197403465,
          6.31664584566098
        ]
      }
    }
  ]
}